STARLINK-5726           
1 55608U 23020AR  26068.13202028  .00001819  00000+0  14968-3 0  9990
2 55608  43.0058 354.8477 0001673 265.2776  94.7876 15.02536254168982
SEDNA-1                 
1 60580U 24149DS  26068.76583836  .00008721  00000+0  60834-3 0  9998
2 60580  97.6673 149.7617 0008344 330.8481  29.2278 15.05597965 85421
